{
    "links": {
        "self": "http://www.neowsapp.com/rest/v1/neo/3703791?api_key=iIulBulltgU6a56xZRHN4H3l9WmuAYTsLGpBGhQ2"
    },
    "id": "3703791",
    "neo_reference_id": "3703791",
    "name": "(2015 BE)",
    "designation": "2015 BE",
    "nasa_jpl_url": "http://ssd.jpl.nasa.gov/sbdb.cgi?sstr=3703791",
    "absolute_magnitude_h": 24.9,
    "estimated_diameter": {
        "kilometers": {
            "estimated_diameter_min": 0.0278326768,
            "estimated_diameter_max": 0.0622357573
        },
        "meters": {
            "estimated_diameter_min": 27.8326768072,
            "estimated_diameter_max": 62.2357573367
        },
        "miles": {
            "estimated_diameter_min": 0.0172944182,
            "estimated_diameter_max": 0.0386714948
        },
        "feet": {
            "estimated_diameter_min": 91.3145593761,
            "estimated_diameter_max": 204.1855621004
        }
    },
    "is_potentially_hazardous_asteroid": false,
    "close_approach_data": [
        {
            "close_approach_date": "2015-01-30",
            "close_approach_date_full": "2015-Jan-30 08:25",
            "epoch_date_close_approach": 1422606300000,
            "relative_velocity": {
                "kilometers_per_second": "12.1380724137",
                "kilometers_per_hour": "43697.0606893452",
                "miles_per_hour": "27151.6541822212"
            },
            "miss_distance": {
                "astronomical": "0.0796780836",
                "lunar": "30.9947745204",
                "kilometers": "11919671.592241932",
                "miles": "7406540.4815733816"
            },
            "orbiting_body": "Earth"
        },
        {
            "close_approach_date": "2015-06-04",
            "close_approach_date_full": "2015-Jun-04 19:09",
            "epoch_date_close_approach": 1433444940000,
            "relative_velocity": {
                "kilometers_per_second": "6.7799867702",
                "kilometers_per_hour": "24407.9523727227",
                "miles_per_hour": "15166.1524062621"
            },
            "miss_distance": {
                "astronomical": "0.445100147",
                "lunar": "173.143957183",
                "kilometers": "66586033.92788689",
                "miles": "41374642.915103482"
            },
            "orbiting_body": "Earth"
        }
    ],
    "orbital_data": {
        "orbit_id": "6",
        "orbit_determination_date": "2017-04-06 08:36:19",
        "first_observation_date": "2015-01-16",
        "last_observation_date": "2015-01-23",
        "data_arc_in_days": 7,
        "observations_used": 13,
        "orbit_uncertainty": "8",
        "minimum_orbit_intersection": ".0786032",
        "jupiter_tisserand_invariant": "4.088",
        "epoch_osculation": "2457041.5",
        "eccentricity": ".451873500753375",
        "semi_major_axis": "1.67378189249831",
        "inclination": "14.52149623751659",
        "ascending_node_longitude": "295.6722105414547",
        "orbital_period": "790.9458008058176",
        "perihelion_distance": ".9174442092374897",
        "perihelion_argument": "244.4388560123392",
        "aphelion_distance": "2.430119575759131",
        "perihelion_time": "2457093.466595226861",
        "mean_anomaly": "336.3473372478743",
        "mean_motion": ".4551512880316592",
        "equinox": "J2000",
        "orbit_class": {
            "orbit_class_type": "APO",
            "orbit_class_description": "Near-Earth asteroid orbits which cross the Earth’s orbit similar to that of 1862 Apollo",
            "orbit_class_range": "a (semi-major axis) > 1.0 AU; q (perihelion) < 1.017 AU"
        }
    },
    "is_sentry_object": false
}